<?xml version="1.0" encoding="UTF-8"?>
<ndm xmlns:xsi="http://www.w3.org/2001/XMLSchema-instance" xsi:noNamespaceSchemaLocation="https://sanaregistry.org/r/ndmxml_unqualified/ndmxml-2.0.0-master-2.0.xsd">
<omm id="CCSDS_OMM_VERS" version="2.0">
<header><CREATION_DATE/><ORIGINATOR/></header><body><segment><metadata><OBJECT_NAME>KUIPER-00157</OBJECT_NAME><OBJECT_ID>2025-228Z</OBJECT_ID><CENTER_NAME>EARTH</CENTER_NAME><REF_FRAME>TEME</REF_FRAME><TIME_SYSTEM>UTC</TIME_SYSTEM><MEAN_ELEMENT_THEORY>SGP4</MEAN_ELEMENT_THEORY></metadata><data><meanElements><EPOCH>2025-10-27T21:19:27.192288</EPOCH><MEAN_MOTION>15.34290135</MEAN_MOTION><ECCENTRICITY>.00057669</ECCENTRICITY><INCLINATION>51.8807</INCLINATION><RA_OF_ASC_NODE>241.4928</RA_OF_ASC_NODE><ARG_OF_PERICENTER>200.0102</ARG_OF_PERICENTER><MEAN_ANOMALY>160.0659</MEAN_ANOMALY></meanElements><tleParameters><EPHEMERIS_TYPE>0</EPHEMERIS_TYPE><CLASSIFICATION_TYPE>U</CLASSIFICATION_TYPE><NORAD_CAT_ID>65970</NORAD_CAT_ID><ELEMENT_SET_NO>999</ELEMENT_SET_NO><REV_AT_EPOCH>337</REV_AT_EPOCH><BSTAR>.53856401E-3</BSTAR><MEAN_MOTION_DOT>.17822E-3</MEAN_MOTION_DOT><MEAN_MOTION_DDOT>0</MEAN_MOTION_DDOT></tleParameters></data></segment></body></omm>
</ndm>
