KUIPER-00157            
1 65970U 25228Z   25300.88850917  .00017822  00000+0  53856-3 0  9991
2 65970  51.8807 241.4928 0005766 200.0102 160.0659 15.34290135  3370
